STARLETTE               
1 07646U 75010A   22349.20729557 -.00000130  00000+0  10764-4 0  9999
2 07646  49.8228 116.7746 0205762 154.6577 206.4579 13.82315241417473
LAGEOS 1                
1 08820U 76039A   22348.78337645  .00000004  00000+0  00000+0 0  9997
2 08820 109.8492 100.7756 0045143 216.6427 139.1181  6.38665000831363
AJISAI (EGS)            
1 16908U 86061A   22349.30638156 -.00000095  00000+0  14655-4 0  9996
2 16908  50.0077 122.9371 0011465 161.6990  45.8147 12.44498355321368
COSMOS 1989 (ETALON 1)  
1 19751U 89001C   22349.11205345  .00000053  00000+0  00000+0 0  9998
2 19751  64.3527 116.1702 0023924 213.7576 272.0720  2.13156251264155
COSMOS 2024 (ETALON 2)  
1 20026U 89039C   22348.59597681 -.00000039  00000+0  00000+0 0  9999
2 20026  65.5139 354.2771 0018677 218.7500 170.9573  2.13204406261195
LAGEOS 2                
1 22195U 92070B   22347.50547378 -.00000009  00000+0  00000+0 0  9992
2 22195  52.6775 356.6519 0138263 347.0675 173.6726  6.47293503712442
STELLA                  
1 22824U 93061B   22349.26653615 -.00000039  00000+0  32099-5 0  9991
2 22824  98.9505  14.6383 0006342   1.8898 138.0889 14.27395820522333
LARES                   
1 38077U 12006A   22349.27305466 -.00000062  00000+0 -14453-3 0  9996
2 38077  69.4966 318.4561 0009981 183.9036 176.1914 12.54931043496596
